$$SOE
2459580.500000000, A.D. 2022-Jan-01 00:00:00.0000, 4.386881353435494E+08, -2.782366063859747E+08, -1.464848058416273E+07,
2459587.500000000, A.D. 2022-Jan-08 00:00:00.0000, 4.428190333532109E+08, -2.687826050408511E+08, -1.423667161329772E+07,
2459594.500000000, A.D. 2022-Jan-15 00:00:00.0000, 4.467960891436175E+08, -2.592348207071008E+08, -1.381989609414209E+07,
2459601.500000000, A.D. 2022-Jan-22 00:00:00.0000, 4.506165988700600E+08, -2.495958193195907E+08, -1.339826014140199E+07,
2459608.500000000, A.D. 2022-Jan-29 00:00:00.0000, 4.542778964924334E+08, -2.398682569627310E+08, -1.297187418674538E+07,
2459615.500000000, A.D. 2022-Feb-05 00:00:00.0000, 4.577773551954118E+08, -2.300548806544857E+08, -1.254085284916541E+07,
2459622.500000000, A.D. 2022-Feb-12 00:00:00.0000, 4.611123910557678E+08, -2.201585300385499E+08, -1.210531508291815E+07,
2459629.500000000, A.D. 2022-Feb-19 00:00:00.0000, 4.642804676257748E+08, -2.101821376074249E+08, -1.166538428764804E+07,
2459636.500000000, A.D. 2022-Feb-26 00:00:00.0000, 4.672791001148198E+08, -2.001287281720043E+08, -1.122118831930988E+07,
2459643.500000000, A.D. 2022-Mar-05 00:00:00.0000, 4.701058593211372E+08, -1.900014181876071E+08, -1.077285946681683E+07,
2459650.500000000, A.D. 2022-Mar-12 00:00:00.0000, 4.727583755273889E+08, -1.798034149955227E+08, -1.032053442010801E+07,
2459657.500000000, A.D. 2022-Mar-19 00:00:00.0000, 4.752343424224601E+08, -1.695380159457990E+08, -9.864354233884819E+06,
2459664.500000000, A.D. 2022-Mar-26 00:00:00.0000, 4.775315210625606E+08, -1.592086074015896E+08, -9.404464289601937E+06,
2459671.500000000, A.D. 2022-Apr-02 00:00:00.0000, 4.796477439293107E+08, -1.488186636759773E+08, -8.941014266574197E+06,
2459678.500000000, A.D. 2022-Apr-09 00:00:00.0000, 4.815809193456481E+08, -1.383717458920099E+08, -8.474158146865234E+06,
2459685.500000000, A.D. 2022-Apr-16 00:00:00.0000, 4.833290365948532E+08, -1.278715001075350E+08, -8.004054233351119E+06,
2459692.500000000, A.D. 2022-Apr-23 00:00:00.0000, 4.848901704628435E+08, -1.173216536170270E+08, -7.530864975934252E+06,
2459699.500000000, A.D. 2022-Apr-30 00:00:00.0000, 4.862624833227720E+08, -1.067260116744434E+08, -7.054756617830403E+06,
2459706.500000000, A.D. 2022-May-07 00:00:00.0000, 4.874442278114075E+08, -9.608845661049858E+07, -6.575899104271255E+06,
2459713.500000000, A.D. 2022-May-14 00:00:00.0000, 4.884337514724079E+08, -8.541294630568536E+07, -6.094466132909123E+06,
2459720.500000000, A.D. 2022-May-21 00:00:00.0000, 4.892295013219277E+08, -7.470351126089729E+07, -5.610635097666837E+06,
2459727.500000000, A.D. 2022-May-28 00:00:00.0000, 4.898300278441625E+08, -6.396425122661424E+07, -5.124586960528910E+06,
2459734.500000000, A.D. 2022-Jun-04 00:00:00.0000, 4.902339886795641E+08, -5.319933170688372E+07, -4.636506102371175E+06,
2459741.500000000, A.D. 2022-Jun-11 00:00:00.0000, 4.904401521352280E+08, -4.241298034022774E+07, -4.146580166082114E+06,
2459748.500000000, A.D. 2022-Jun-18 00:00:00.0000, 4.904474005404115E+08, -3.160948314911068E+07, -3.654999894646322E+06,
2459755.500000000, A.D. 2022-Jun-25 00:00:00.0000, 4.902547334608757E+08, -2.079318069649058E+07, -3.161958969833528E+06,
2459762.500000000, A.D. 2022-Jul-02 00:00:00.0000, 4.898612708909419E+08, -9.968464221191628E+06, -2.667653869407116E+06,
2459769.500000000, A.D. 2022-Jul-09 00:00:00.0000, 4.892662567989110E+08, 8.602284178807623E+05, -2.172283764444544E+06,
2459776.500000000, A.D. 2022-Jul-16 00:00:00.0000, 4.884690629566733E+08, 1.168841806384323E+07, -1.676050363395752E+06,
2459783.500000000, A.D. 2022-Jul-23 00:00:00.0000, 4.874691908435378E+08, 2.251159091929196E+07, -1.179157494855861E+06,
2459790.500000000, A.D. 2022-Jul-30 00:00:00.0000, 4.862662716981903E+08, 3.332520317351605E+07, -6.818107109105326E+05,
2459797.500000000, A.D. 2022-Aug-06 00:00:00.0000, 4.848600683050166E+08, 4.412468423436747E+07, -1.842171885096394E+05,
2459804.500000000, A.D. 2022-Aug-13 00:00:00.0000, 4.832504776787045E+08, 5.490544130662729E+07, 3.134143714522868E+05,
2459811.500000000, A.D. 2022-Aug-20 00:00:00.0000, 4.814375330668002E+08, 6.566286480050644E+07, 8.108739499327205E+05,
2459818.500000000, A.D. 2022-Aug-27 00:00:00.0000, 4.794214053287008E+08, 7.639233382981643E+07, 1.307950454501919E+06,
2459825.500000000, A.D. 2022-Sep-03 00:00:00.0000, 4.772024039303516E+08, 8.708922167461339E+07, 1.804431970914189E+06,
2459832.500000000, A.D. 2022-Sep-10 00:00:00.0000, 4.747809776372200E+08, 9.774890121693817E+07, 2.300106014719009E+06,
2459839.500000000, A.D. 2022-Sep-17 00:00:00.0000, 4.721577149286876E+08, 1.083667503320229E+08, 2.794759779512562E+06,
2459846.500000000, A.D. 2022-Sep-24 00:00:00.0000, 4.693333441893756E+08, 1.189381571675995E+08, 3.288180371468924E+06,
2459853.500000000, A.D. 2022-Oct-01 00:00:00.0000, 4.663087339137194E+08, 1.294585252717745E+08, 3.780155005508274E+06,
2459860.500000000, A.D. 2022-Oct-08 00:00:00.0000, 4.630848933278224E+08, 1.399232790735260E+08, 4.270471167411111E+06,
2459867.500000000, A.D. 2022-Oct-15 00:00:00.0000, 4.596629724935637E+08, 1.503278708976142E+08, 4.758916924321376E+06,
2459874.500000000, A.D. 2022-Oct-22 00:00:00.0000, 4.560442597134615E+08, 1.606677878141806E+08, 5.245281445316702E+06,
2459881.500000000, A.D. 2022-Oct-29 00:00:00.0000, 4.522301787375667E+08, 1.709385557124051E+08, 5.729355289999321E+06,
2459888.500000000, A.D. 2022-Nov-05 00:00:00.0000, 4.482222878741812E+08, 1.811357433212167E+08, 6.210930495324545E+06,
2459895.500000000, A.D. 2022-Nov-12 00:00:00.0000, 4.440222790428737E+08, 1.912549674275086E+08, 6.689800743393421E+06,
2459902.500000000, A.D. 2022-Nov-19 00:00:00.0000, 4.396319760562937E+08, 2.012918983215945E+08, 7.165761597312152E+06,
2459909.500000000, A.D. 2022-Nov-26 00:00:00.0000, 4.350533324005429E+08, 2.112422650564537E+08, 7.638610747730270E+06,
2459916.500000000, A.D. 2022-Dec-03 00:00:00.0000, 4.302884286887360E+08, 2.211018604933408E+08, 8.108148253070116E+06,
2459923.500000000, A.D. 2022-Dec-10 00:00:00.0000, 4.253394698428163E+08, 2.308665461370681E+08, 8.574176770046070E+06,
2459930.500000000, A.D. 2022-Dec-17 00:00:00.0000, 4.202087820388209E+08, 2.405322567213330E+08, 9.036501769478992E+06,
2459937.500000000, A.D. 2022-Dec-24 00:00:00.0000, 4.148988095365387E+08, 2.500950044645367E+08, 9.494931721373424E+06,
2459944.500000000, A.D. 2022-Dec-31 00:00:00.0000, 4.094121117638860E+08, 2.595508830906305E+08, 9.949278224641889E+06,
2459951.500000000, A.D. 2023-Jan-07 00:00:00.0000, 4.037513607916526E+08, 2.688960725645588E+08, 1.039935614820448E+07,
2459958.500000000, A.D. 2023-Jan-14 00:00:00.0000, 3.979193372436924E+08, 2.781268450277219E+08, 1.084498400395492E+07,
2459965.500000000, A.D. 2023-Jan-21 00:00:00.0000, 3.919189240123550E+08, 2.872395687528397E+08, 1.128598435129316E+07,
2459972.500000000, A.D. 2023-Jan-28 00:00:00.0000, 3.857531014646506E+08, 2.962307099146520E+08, 1.172218388047388E+07,
2459979.500000000, A.D. 2023-Feb-04 00:00:00.0000, 3.794249439463543E+08, 3.050968351952704E+08, 1.215341344081239E+07,
2459986.500000000, A.D. 2023-Feb-11 00:00:00.0000, 3.729376158040347E+08, 3.138346150234658E+08, 1.257950816226988E+07,
2459993.500000000, A.D. 2023-Feb-18 00:00:00.0000, 3.662943668777297E+08, 3.224408266190079E+08, 1.300030760869916E+07,
2460000.500000000, A.D. 2023-Feb-25 00:00:00.0000, 3.594985277429435E+08, 3.309123566754769E+08, 1.341565592518707E+07,
2460007.500000000, A.D. 2023-Mar-04 00:00:00.0000, 3.525535048195467E+08, 3.392462036969735E+08, 1.382540197148101E+07,
2460014.500000000, A.D. 2023-Mar-11 00:00:00.0000, 3.454627753914140E+08, 3.474394799878168E+08, 1.422939943890335E+07,
2460021.500000000, A.D. 2023-Mar-18 00:00:00.0000, 3.382298825995501E+08, 3.554894132464716E+08, 1.462750694257995E+07,
2460028.500000000, A.D. 2023-Mar-25 00:00:00.0000, 3.308584306285892E+08, 3.633933477188624E+08, 1.501958806682198E+07,
2460035.500000000, A.D. 2023-Apr-01 00:00:00.0000, 3.233520805285773E+08, 3.711487453075809E+08, 1.540551135722110E+07,
2460042.500000000, A.D. 2023-Apr-08 00:00:00.0000, 3.157145460734001E+08, 3.787531878642773E+08, 1.578515041619200E+07,
2460049.500000000, A.D. 2023-Apr-15 00:00:00.0000, 3.079495873328738E+08, 3.862043795616339E+08, 1.615838422614852E+07,
2460056.500000000, A.D. 2023-Apr-22 00:00:00.0000, 3.000610037818381E+08, 3.935001462990053E+08, 1.652509728542462E+07,
2460063.500000000, A.D. 2023-Apr-29 00:00:00.0000, 2.920526296967915E+08, 4.006384344007507E+08, 1.688517949035579E+07,
2460070.500000000, A.D. 2023-May-06 00:00:00.0000, 2.839283300928491E+08, 4.076173103933968E+08, 1.723852607052872E+07,
2460077.500000000, A.D. 2023-May-13 00:00:00.0000, 2.756919962357004E+08, 4.144349609745811E+08, 1.758503759388539E+07,
2460084.500000000, A.D. 2023-May-20 00:00:00.0000, 2.673475409739344E+08, 4.210896926905113E+08, 1.792461998020548E+07,
2460091.500000000, A.D. 2023-May-27 00:00:00.0000, 2.588988940959361E+08, 4.275799313009626E+08, 1.825718450291523E+07,
2460098.500000000, A.D. 2023-Jun-03 00:00:00.0000, 2.503499977789182E+08, 4.339042208667240E+08, 1.858264777614805E+07,
2460105.500000000, A.D. 2023-Jun-10 00:00:00.0000, 2.417048021630216E+08, 4.400612225550886E+08, 1.890093172385046E+07,
2460112.500000000, A.D. 2023-Jun-17 00:00:00.0000, 2.329672611478388E+08, 4.460497131130856E+08, 1.921196351799244E+07,
2460119.500000000, A.D. 2023-Jun-24 00:00:00.0000, 2.241413287389403E+08, 4.518685830744370E+08, 1.951567546126994E+07,
2460126.500000000, A.D. 2023-Jul-01 00:00:00.0000, 2.152309562047932E+08, 4.575168355390360E+08, 1.981200485896391E+07,
2460133.500000000, A.D. 2023-Jul-08 00:00:00.0000, 2.062400883765299E+08, 4.629935863565855E+08, 2.010089410081640E+07,
2460140.500000000, A.D. 2023-Jul-15 00:00:00.0000, 1.971726578176581E+08, 4.682980628937403E+08, 2.038229083909801E+07,
2460147.500000000, A.D. 2023-Jul-22 00:00:00.0000, 1.880325803887100E+08, 4.734296003624693E+08, 2.065614785592335E+07,
$$EOE